{
    "links": {
        "self": "http://www.neowsapp.com/rest/v1/neo/3608626?api_key=iIulBulltgU6a56xZRHN4H3l9WmuAYTsLGpBGhQ2"
    },
    "id": "3608626",
    "neo_reference_id": "3608626",
    "name": "(2012 RP15)",
    "designation": "2012 RP15",
    "nasa_jpl_url": "http://ssd.jpl.nasa.gov/sbdb.cgi?sstr=3608626",
    "absolute_magnitude_h": 23.0,
    "estimated_diameter": {
        "kilometers": {
            "estimated_diameter_min": 0.0667659413,
            "estimated_diameter_max": 0.1492931834
        },
        "meters": {
            "estimated_diameter_min": 66.7659413495,
            "estimated_diameter_max": 149.2931834393
        },
        "miles": {
            "estimated_diameter_min": 0.0414864197,
            "estimated_diameter_max": 0.0927664547
        },
        "feet": {
            "estimated_diameter_min": 219.0483710172,
            "estimated_diameter_max": 489.807047955
        }
    },
    "is_potentially_hazardous_asteroid": false,
    "close_approach_data": [
        {
            "close_approach_date": "2012-09-24",
            "close_approach_date_full": "2012-Sep-24 19:05",
            "epoch_date_close_approach": 1348513500000,
            "relative_velocity": {
                "kilometers_per_second": "8.1763101626",
                "kilometers_per_hour": "29434.71658533",
                "miles_per_hour": "18289.5882027013"
            },
            "miss_distance": {
                "astronomical": "0.1120878691",
                "lunar": "43.6021810799",
                "kilometers": "16768106.470198817",
                "miles": "10419218.2150129946"
            },
            "orbiting_body": "Earth"
        },
        {
            "close_approach_date": "2016-10-01",
            "close_approach_date_full": "2016-Oct-01 13:29",
            "epoch_date_close_approach": 1475328540000,
            "relative_velocity": {
                "kilometers_per_second": "11.1246044581",
                "kilometers_per_hour": "40048.5760491193",
                "miles_per_hour": "24884.6277122986"
            },
            "miss_distance": {
                "astronomical": "0.0977329236",
                "lunar": "38.0181072804",
                "kilometers": "14620637.199432732",
                "miles": "9084842.6859744216"
            },
            "orbiting_body": "Mars"
        },
        {
            "close_approach_date": "2112-08-29",
            "close_approach_date_full": "2112-Aug-29 17:03",
            "epoch_date_close_approach": 4501933380000,
            "relative_velocity": {
                "kilometers_per_second": "18.4396066159",
                "kilometers_per_hour": "66382.5838170888",
                "miles_per_hour": "41247.5560390128"
            },
            "miss_distance": {
                "astronomical": "0.4306113952",
                "lunar": "167.5078327328",
                "kilometers": "64418547.519648224",
                "miles": "40027829.3136005312"
            },
            "orbiting_body": "Earth"
        }
    ],
    "orbital_data": {
        "orbit_id": "12",
        "orbit_determination_date": "2017-04-06 08:49:00",
        "first_observation_date": "2012-09-14",
        "last_observation_date": "2012-11-20",
        "data_arc_in_days": 67,
        "observations_used": 68,
        "orbit_uncertainty": "7",
        "minimum_orbit_intersection": ".0937629",
        "jupiter_tisserand_invariant": "3.149",
        "epoch_osculation": "2459000.5",
        "eccentricity": ".5840011992777182",
        "semi_major_axis": "2.593558392047788",
        "inclination": "4.362403808374841",
        "ascending_node_longitude": "161.3285672635186",
        "orbital_period": "1525.606295765196",
        "perihelion_distance": "1.078917180695089",
        "perihelion_argument": "220.1275158649794",
        "aphelion_distance": "4.108199603400486",
        "perihelion_time": "2459254.602033581807",
        "mean_anomaly": "300.0390963622967",
        "mean_motion": ".2359717582441119",
        "equinox": "J2000",
        "orbit_class": {
            "orbit_class_type": "AMO",
            "orbit_class_description": "Near-Earth asteroid orbits similar to that of 1221 Amor",
            "orbit_class_range": "1.017 AU < q (perihelion) < 1.3 AU"
        }
    },
    "is_sentry_object": false
}